{"type":"FeatureCollection","features":[{"type":"Feature","id":1,"geometry":{"type":"Polygon","coordinates":[[[11.585368718646233,47.153000711217395],[11.585317457836517,47.152957104673263],[11.58519744499667,47.152854970604295],[11.58514942626798,47.152814656791151],[11.585096707300307,47.152770706246379],[11.584891307584952,47.152603479349857],[11.584721531723739,47.152465277515077],[11.584622205579199,47.152379288294043],[11.584332613200285,47.15214713441231],[11.58426473661434,47.152080861080215],[11.583762066929589,47.151679761983843],[11.583458787112502,47.151431473955689],[11.583286291792877,47.151289431727164],[11.583122598646632,47.151151611026116],[11.583038824842252,47.151087668834073],[11.58274926256547,47.150850563323267],[11.581462841449763,47.149787671458412],[11.581154030482391,47.149544384682905],[11.581522268753929,47.14952077235683],[11.582478488339463,47.149014475447096],[11.583581200502326,47.148621981470576],[11.584598543764605,47.148250016523193],[11.58480562219907,47.148106896995216],[11.585281535200146,47.147777976508188],[11.585560852404665,47.147623183773433],[11.586040998205371,47.147357089232685],[11.586343643918159,47.1471908861553],[11.586836231105528,47.146904683466573],[11.588159218585696,47.146345400335747],[11.588531727780966,47.145982695669616],[11.590615316016322,47.144483988199141],[11.592044666645023,47.143530231480177],[11.592405889468715,47.143289160789237],[11.59336145659007,47.141791345209363],[11.593645479442383,47.141016632061636],[11.593874377028504,47.140392291019737],[11.594392659816162,47.139042827947542],[11.594405651358304,47.139006794970484],[11.59480669714482,47.137891049731365],[11.594998472632259,47.137063376006871],[11.595285430904768,47.136565763534463],[11.594951521235069,47.13515235249843],[11.594881507565578,47.13482759078876],[11.5948994391514,47.13450384145041],[11.594973749871265,47.133162041168447],[11.596745738044122,47.132461266110695],[11.598029758841568,47.132112870214009],[11.599290807992626,47.132492773688149],[11.60162551510137,47.13318552748887],[11.601699049024656,47.133184813952212],[11.603373855483254,47.133168535860854],[11.604003701122341,47.133154009642894],[11.60476886550115,47.133275875545785],[11.605575752598803,47.133262078115081],[11.605809181461877,47.133289354336142],[11.606671884453862,47.133056710174145],[11.607173041076155,47.133621346937879],[11.608150832912484,47.133853718533565],[11.608347429819474,47.133795585716214],[11.608956128220413,47.134060114128758],[11.609173611309814,47.134054189009937],[11.609463924007262,47.134211253945431],[11.609961176156757,47.134185719797259],[11.61019736094792,47.134173594029122],[11.610523642274774,47.134296704587364],[11.610972412653499,47.134244666306572],[11.611455403119416,47.134350378464184],[11.612073888859967,47.134753125405084],[11.612283367775341,47.134996536746847],[11.613427668532632,47.134787599135741],[11.614156562822545,47.134290586607506],[11.614184058259138,47.134271839923287],[11.61391940946784,47.133651524637109],[11.615446789707743,47.132461698028322],[11.615843267817722,47.132494418509324],[11.616185952852984,47.131010540585336],[11.61811847827318,47.130812362138236],[11.61815503023826,47.130808615839335],[11.618813840403931,47.130794043692291],[11.620002659836628,47.1310047912011],[11.620979939571209,47.13065192971559],[11.621962318056907,47.130855617658398],[11.623580443260094,47.130957074872043],[11.624336494095385,47.131050308186438],[11.624918410548712,47.131404554112422],[11.626003099954238,47.131957054348341],[11.626386053060802,47.132040820734396],[11.627620256660046,47.132310777160328],[11.626415191038971,47.133245391106811],[11.62522744710753,47.134166520489536],[11.624530913730089,47.134706685817441],[11.626490711100155,47.136367042823466],[11.627494678713736,47.137217562960295],[11.626521793883839,47.137651709421121],[11.62458875745576,47.138514275192328],[11.623259997868576,47.137357788089744],[11.618168992489386,47.137498629553562],[11.618279865881451,47.137526496496548],[11.620073219657382,47.137977244945908],[11.621030787702011,47.138179779736795],[11.621706354226832,47.13817300872843],[11.622356973126722,47.138230468771418],[11.623364868188906,47.138480362559058],[11.623801508825551,47.138743957104197],[11.626180230698347,47.139427799900446],[11.626565725271979,47.139467263354277],[11.629610054819169,47.139778874267321],[11.632698363374981,47.140119410241908],[11.633142024911173,47.139780310602696],[11.632769090074181,47.139205880749188],[11.633105694940946,47.138915307110324],[11.633335302189936,47.138572513646075],[11.63345958167959,47.138386977104354],[11.6343181050156,47.137047329425435],[11.634587905917359,47.136509784320644],[11.634222095290825,47.136195235565857],[11.634083816441954,47.135761891161394],[11.634033333410477,47.135214933464546],[11.63423442092169,47.134318634727201],[11.633982213696047,47.133948377358976],[11.633284246887929,47.133064332949786],[11.633331324330273,47.132842970775478],[11.633212900029704,47.132309375031326],[11.633531118031867,47.131568174901005],[11.634208946059916,47.130899536771032],[11.634591616207748,47.130706131693884],[11.635164770110277,47.130416458582118],[11.636591076161872,47.130785981692043],[11.6364444610972,47.132189888424939],[11.636284996112401,47.133715823708542],[11.636249499656389,47.134041938147412],[11.636155139090286,47.134958797252935],[11.636110459798379,47.135386300276615],[11.636759234337179,47.135822931485862],[11.637743118829627,47.136027906200553],[11.63765553537532,47.136290298140693],[11.638611472584051,47.137050668546664],[11.638789189127674,47.137585832823085],[11.639273005774161,47.137975392529334],[11.639855864370888,47.138498478993071],[11.64003331814752,47.138890083005492],[11.640346240851123,47.140101573401843],[11.641665149201536,47.141090756460507],[11.641930723443208,47.141152673418901],[11.642438558496302,47.141266517010493],[11.643086123552635,47.141180773733666],[11.643621317770673,47.141318865407165],[11.644665394387994,47.141478747867446],[11.644954049400553,47.142099437172853],[11.645269900261351,47.142324032218824],[11.645460706269771,47.142465322420726],[11.645616080409297,47.142715227960899],[11.64594708948062,47.142982374358724],[11.646127997326493,47.143187461650221],[11.646681353668415,47.143709321363765],[11.646810251731814,47.143788172318146],[11.647269979864237,47.144067334436627],[11.647848532404209,47.144471064782863],[11.648088232405113,47.144798528021603],[11.648373016048021,47.145109552993944],[11.648810242521789,47.145502124501263],[11.64935347426661,47.146231783046836],[11.650204932523964,47.147375273718318],[11.65061888687219,47.147931185530346],[11.651501150583988,47.148297284179165],[11.652730185287632,47.148807251221378],[11.659818415108402,47.15138594995441],[11.660705389805546,47.151708585064284],[11.661272643880764,47.151745290014212],[11.662359965448601,47.151815639832343],[11.668173911209736,47.155965521385518],[11.668445848735681,47.156159601988747],[11.668534933213561,47.156223186162372],[11.668592680279714,47.156264395341438],[11.670277470714447,47.157466760773545],[11.67210134825514,47.15801740734284],[11.675432785968979,47.159021837725788],[11.676500641150893,47.159343935380043],[11.676909262450868,47.159467179451269],[11.677524555104219,47.159502072307781],[11.677708069330142,47.159342599744555],[11.678306588785068,47.159219462032631],[11.679300066017694,47.159284364292567],[11.680076983644179,47.159202031578957],[11.680944469978916,47.15941123907966],[11.682061854375535,47.159666796706681],[11.682758916021879,47.159816466809687],[11.682992174377134,47.159976894357932],[11.683441981981948,47.160038347600043],[11.683971622042932,47.160060387900963],[11.684117778349925,47.160066466669583],[11.684264153776279,47.160274598347101],[11.684449979350319,47.160469852299101],[11.684965545783875,47.16101158039254],[11.685173437759467,47.161206213501863],[11.685321921096341,47.161419176296278],[11.685604748404069,47.162052153832818],[11.685725630421741,47.162404054842568],[11.685808500594941,47.162692268970304],[11.685784111834696,47.163281011876947],[11.685723319118352,47.163557246236195],[11.685857150149532,47.164008839387179],[11.685886043817117,47.164233105029552],[11.685804508155552,47.164794276760624],[11.685846104905744,47.164950929923478],[11.685993321756154,47.165505358257597],[11.685768334787999,47.165573853089398],[11.685977178501098,47.166029059604071],[11.685334062138578,47.166258004400589],[11.685403482741629,47.167145086553845],[11.685718890315902,47.168240204063189],[11.686306186197964,47.169268701070294],[11.686405662716352,47.169441852174124],[11.686903275270177,47.170307963427511],[11.686729272220152,47.170926174708448],[11.686924183871559,47.171941843682362],[11.686833054272475,47.172506456724463],[11.686773065038951,47.173935034400671],[11.686739539638994,47.174733288294824],[11.686800107582631,47.175259412608931],[11.686858024635656,47.175504113876791],[11.686588561190847,47.175703472455496],[11.686693884856391,47.176028120317667],[11.685632080203311,47.177048616440999],[11.685217925731861,47.178103537350495],[11.684481776868793,47.179978526834248],[11.684258509451114,47.18270205602289],[11.683979805536701,47.182962952819146],[11.68332566237061,47.183575292439365],[11.680520376821132,47.185558907455295],[11.678246036600143,47.187178861873818],[11.677757420517363,47.187533501704657],[11.67750670251813,47.187715474341523],[11.677010237215841,47.188075806734403],[11.676145054471013,47.188703734382642],[11.675124872139584,47.18947160346552],[11.673702824907263,47.190474248393144],[11.671833145999651,47.192360996524513],[11.670923523264893,47.193896160273631],[11.673045098785389,47.196583588826158],[11.673480246474185,47.197134759553734],[11.672270974756543,47.197081048402936],[11.671392497791478,47.19745639783244],[11.670176659789004,47.197783228939919],[11.669947799015313,47.197608602758685],[11.669190044717501,47.197746591102963],[11.668799462550977,47.197601189194856],[11.668100315740562,47.19788213839071],[11.666751382233082,47.197743011259874],[11.665695631225768,47.198314397628437],[11.664825743506359,47.198650558589478],[11.662711301255369,47.199467611545202],[11.661300147713678,47.198786563514403],[11.66099323902978,47.198635381741454],[11.659276203946659,47.197792392251543],[11.657655267046875,47.196996535497973],[11.656541869522018,47.196451010870952],[11.65538276830126,47.195884719623336],[11.654474439023849,47.195440929984322],[11.65367504333094,47.195666996001208],[11.652680812610356,47.196045952725441],[11.651954184947169,47.19632290049374],[11.650940843211032,47.196709176575254],[11.650324410107951,47.196944092878098],[11.649530589897953,47.197723886744875],[11.649489646706723,47.197766974366438],[11.649328015301496,47.197707913328244],[11.649189728894795,47.197690528065337],[11.649104880914434,47.19763315015004],[11.648668321712815,47.197494107326165],[11.648466040263983,47.197491045816662],[11.648158067573407,47.19754811160923],[11.647904583586257,47.197464302931486],[11.647799345319338,47.197384867978869],[11.647427175865349,47.197286900798872],[11.647293689408757,47.197279469715049],[11.647085640181803,47.197170268069691],[11.646401307471857,47.197060865847959],[11.646305147244851,47.197053078634646],[11.646152527542982,47.196997463065863],[11.64600929234339,47.196983179855387],[11.645335587637938,47.197079769680009],[11.645234503194242,47.197074052719586],[11.644900277247764,47.197010238408815],[11.64474090931016,47.196942563831435],[11.644686008942088,47.19693393513159],[11.644453943244169,47.196903987951359],[11.644134831660303,47.196862801058721],[11.64357657608568,47.196726414591403],[11.64344611644673,47.196693308790323],[11.643185598001301,47.196497240656093],[11.643139477205624,47.196479597017898],[11.643004087339978,47.196440763192619],[11.642758345212615,47.196480382852741],[11.642631963925261,47.196482732787643],[11.642470196601119,47.196459598565937],[11.642342712921273,47.196436388028488],[11.642268280710811,47.196444369730138],[11.641406900049487,47.196632828028342],[11.641033259593595,47.196553287554501],[11.640719830732898,47.196577914633373],[11.64061494347906,47.196566129314235],[11.640508988783088,47.196536096247975],[11.640354837581183,47.196461834813213],[11.640198700776157,47.196714761112588],[11.640070217433701,47.196963675486458],[11.639587769388902,47.197898257086536],[11.640632951893776,47.197498406562637],[11.641477490125807,47.197597535571084],[11.640861657246436,47.198418866401404],[11.641802434634895,47.199594404885175],[11.642122492751628,47.200804987948928],[11.641551737959789,47.201388250913553],[11.641432370522013,47.201445649756018],[11.640948963066784,47.20167809994409],[11.640513907341436,47.202435393716392],[11.6405156431527,47.202780780761216],[11.640541994586208,47.203209630656922],[11.64019422680126,47.203657131838163],[11.639796711316855,47.204132272907323],[11.63928306341926,47.204279697811984],[11.639117868922037,47.204653788542714],[11.637162765528942,47.204186053446243],[11.636378107951009,47.203954157846383],[11.636133711357946,47.20388192249176],[11.635580582256166,47.203758211797265],[11.635145250033831,47.20375491861251],[11.634082701840615,47.203807223747361],[11.630460649658186,47.203977225613677],[11.629637545956372,47.204339028767734],[11.629276191584534,47.204664948114988],[11.628926329765971,47.20494689515796],[11.628652596390673,47.205152244631641],[11.628102073055937,47.205550931803572],[11.627233217594899,47.205790836360045],[11.627109503619854,47.205914382137735],[11.627033341546639,47.206106293348078],[11.626903649251613,47.206362671868739],[11.626791869529088,47.206526650088406],[11.626452230923647,47.206705428016726],[11.626225280647802,47.206986288037122],[11.625999096605639,47.207179078322426],[11.625800716725653,47.20741356160022],[11.625553342484578,47.207739714905735],[11.625471246101633,47.207800007425774],[11.625599535447256,47.207914830508315],[11.625617769866883,47.207937391499236],[11.625704331759669,47.208019548517441],[11.62577210311866,47.20798650271022],[11.625988294139932,47.208007455654169],[11.626141148603242,47.20813055754428],[11.626378005343074,47.208322163233099],[11.626566786522266,47.208473355938558],[11.626625161131866,47.208485534178379],[11.627057930892633,47.208575851923499],[11.627251374796879,47.208665600379],[11.627677360002869,47.208726461806158],[11.628171443583261,47.208966092965412],[11.628250731638367,47.209094726073182],[11.628254329894739,47.209117874485109],[11.628277014498398,47.209263804646419],[11.628228266952249,47.209446952068518],[11.628268756544788,47.209711810590747],[11.628318976751952,47.210040315569977],[11.629027670494432,47.210077294413892],[11.629547096601948,47.210212921775238],[11.62997675672797,47.210304855709659],[11.630347581665699,47.21040914616438],[11.630845396661012,47.210464686839146],[11.631251038375602,47.210578385380678],[11.631855534676415,47.210710611879129],[11.632227502887854,47.210805753440091],[11.632326024179736,47.210830949004993],[11.632631013124429,47.210947130695644],[11.632962340614128,47.211136502199757],[11.633205738964948,47.211312224540237],[11.633343953132389,47.211412014714199],[11.633635201433981,47.211684411764438],[11.633831268370256,47.211780110025082],[11.634160238949976,47.211940666929955],[11.634585751288572,47.212197058321351],[11.634735620918347,47.212360956656696],[11.635130762005028,47.212492390592857],[11.635323203244029,47.212624251136724],[11.635510436164335,47.212752536469175],[11.635589630013641,47.212806102642631],[11.635976741997908,47.213067916615223],[11.635437448082092,47.213606895274268],[11.634734413294597,47.213971426491824],[11.634597986097488,47.214250197237718],[11.634420688925072,47.214612364413696],[11.634213968281669,47.215034771045353],[11.634100663402119,47.215341613230194],[11.633910081834635,47.215857563752138],[11.633795165304457,47.21616883136825],[11.633669592531032,47.216508733524627],[11.633611181272352,47.216619942968748],[11.63316581905042,47.216476569459488],[11.632838816176859,47.216352273121529],[11.632279913911146,47.216148925663916],[11.631614717613926,47.215830742701428],[11.631051239241495,47.215607112412862],[11.630142264863309,47.215551000435788],[11.63009510720468,47.215548762641653],[11.62922207459734,47.215505891729279],[11.628938414747999,47.215529331747852],[11.628605121777049,47.215275926872799],[11.628402355568719,47.215211093981992],[11.627828939129062,47.215028594898179],[11.627666300823915,47.214914573627617],[11.627422737178122,47.214871175149554],[11.627066867473145,47.21459544294266],[11.626750199621567,47.214618529899774],[11.626427195507816,47.214668852086071],[11.625916946078684,47.214466724593215],[11.62551423172968,47.214479982912465],[11.625445592857673,47.214474863725513],[11.625376953998046,47.2144697444973],[11.625278428532114,47.214402581582071],[11.625290457328408,47.214362922424606],[11.625169017848167,47.214233790216007],[11.6250475789615,47.214104657870095],[11.624927642621884,47.214066384447683],[11.624807706452867,47.21402811089775],[11.624509015139992,47.213975746711363],[11.624210324400163,47.213923381739981],[11.624162790495467,47.213917529766476],[11.624115256600817,47.213911677773119],[11.623761855227366,47.213867797294618],[11.62356182103629,47.213835738698442],[11.62348918849421,47.213823746105504],[11.623456903878987,47.213818514033584],[11.623363383765206,47.213803652814903],[11.623372670542309,47.213794643468738],[11.623473715797454,47.213696623473815],[11.623514274279561,47.213625368471135],[11.623677684650067,47.213338275241426],[11.623725081323036,47.212934400046315],[11.624014639806539,47.212300176503838],[11.624014078006523,47.21221754621223],[11.623824914829841,47.211858345445357],[11.62381156806372,47.211630374515785],[11.623712751203373,47.211405810856419],[11.623873683347401,47.210926693862177],[11.623970085672077,47.210638248449243],[11.623998846144357,47.21055142966874],[11.623949765813148,47.209981035753536],[11.623918723400941,47.209314354895746],[11.624397109230781,47.208847930881205],[11.625040418934974,47.208332833336989],[11.6248804017173,47.208240030918198],[11.624849860842033,47.208259785601648],[11.624820631078929,47.208330940698332],[11.624797632685498,47.208350376652646],[11.624572247657262,47.208111172299063],[11.624521402371546,47.208057216711914],[11.624263098796952,47.207783076748086],[11.624196610488625,47.207687056588597],[11.624139954485633,47.207592059208608],[11.624123545750431,47.207492219768021],[11.624163164439418,47.207392730852796],[11.624198801593106,47.207334330680666],[11.624112439367153,47.207280450422587],[11.623963674331648,47.207214750642024],[11.623919899796293,47.207194914124742],[11.623817540133953,47.207148661298326],[11.623774219789073,47.2071421321576],[11.623749673815619,47.207131434201777],[11.623731395781681,47.20711248038036],[11.623694565976642,47.207095983804834],[11.622611405278448,47.206718850818795],[11.622361917334324,47.206531318931873],[11.622243466570339,47.206453241299407],[11.62199519551953,47.206520198301376],[11.621805394949721,47.206569048359043],[11.621050744495822,47.20671477819436],[11.619943242776211,47.206908623056556],[11.619052390961802,47.207077363904517],[11.618542412586633,47.207172483736038],[11.617607736560057,47.207336037073581],[11.616719904509045,47.207477291349477],[11.615562554031346,47.207679836397453],[11.614764084177763,47.207557964457891],[11.611993550498298,47.207186149455019],[11.611708986564516,47.207225397071838],[11.610879630655546,47.207339770619008],[11.609455812421922,47.207538922224948],[11.60871670730682,47.207497752623439],[11.608067014835305,47.207596716373963],[11.607578232133676,47.207557976953019],[11.605039760338967,47.207123781487454],[11.604436087767208,47.207187674282736],[11.604084824873423,47.207397097263886],[11.603639038930515,47.207295799969842],[11.603460517133692,47.207276474968779],[11.603173082888825,47.207245365606731],[11.602578053932216,47.20740081156206],[11.601911051118428,47.207210923937829],[11.601363378318565,47.207520643443786],[11.600649357040821,47.207684859283972],[11.600406293494796,47.207660170324175],[11.600138862952523,47.207632115745319],[11.59939525887628,47.207812571216628],[11.596369636287942,47.208542463755975],[11.595040456569466,47.208862186444577],[11.594025527614697,47.209102706135333],[11.592237460451125,47.209533124545992],[11.591101963500826,47.209811729489765],[11.590362139164039,47.210317431889905],[11.589351762242577,47.211022179168253],[11.589084299207377,47.211206172896595],[11.587782095208063,47.212110367091114],[11.587270968878487,47.212464144410617],[11.587086139814021,47.212592478729228],[11.584540785802117,47.214359748289915],[11.584767314488847,47.213977153511408],[11.58451053703782,47.213712172581502],[11.5845636891905,47.213383907785577],[11.584557685365288,47.212824398078006],[11.584487282938476,47.212698876308835],[11.584306060709674,47.212345550783475],[11.584812810552689,47.212186934673049],[11.585060244324593,47.211846207623246],[11.585342271222711,47.211399142400211],[11.585535760946598,47.211184302013386],[11.585471817149271,47.211064557089649],[11.585231992640317,47.210615446212707],[11.584783725402518,47.20996379203352],[11.584070007810785,47.209469291240538],[11.583942193484759,47.209101890758809],[11.583550112800674,47.207974236745194],[11.583908854925649,47.207539831817847],[11.584559413028334,47.206577031013346],[11.584753206169859,47.206290228856467],[11.58499871086571,47.205412973826931],[11.584643903470916,47.203269206476492],[11.584516605648682,47.20254641000168],[11.584749945517611,47.202225535545089],[11.585116038450765,47.201808316542056],[11.585567841857227,47.201506106550788],[11.586249900308593,47.201353666957935],[11.586742070168778,47.201185846199934],[11.586817895822639,47.20118317443896],[11.588047588825383,47.201139834538218],[11.588426001674792,47.200613811097334],[11.588718161427341,47.200370991290349],[11.588200262010629,47.199971969641851],[11.587682939394735,47.199916996535862],[11.587266500906921,47.199970927696064],[11.586589757444305,47.199551146046936],[11.586183395267897,47.199432799762405],[11.585970737321253,47.198992568046961],[11.585356815556237,47.198594401172308],[11.585149310562585,47.198322677264891],[11.584707503450259,47.198183663977382],[11.584759850461902,47.198007331888952],[11.584283071121439,47.197654348202747],[11.584215531288473,47.197585822849248],[11.583663376758036,47.197025604262201],[11.582929107346951,47.196220453442265],[11.582804338228017,47.195350289229893],[11.582470624029575,47.194562453399151],[11.582333306402891,47.194204148636729],[11.582468166728567,47.193972860086049],[11.582022938084808,47.193651995396372],[11.58180727283143,47.1931766179937],[11.58181463336898,47.19311447267706],[11.581877243758971,47.192585967092199],[11.582256692491422,47.192002654063927],[11.5824335824929,47.191701197241279],[11.58230946645225,47.190801701148835],[11.582365893934281,47.19009507193568],[11.58262472321184,47.188892146494034],[11.582591386420555,47.188651803709682],[11.582551775297137,47.18860896887751],[11.581798501849681,47.187794481974613],[11.582114991589419,47.187397689718225],[11.582078260878164,47.186972716763918],[11.582309897502272,47.186603831707949],[11.582070658126442,47.185757038205132],[11.582387906333734,47.185055037117955],[11.581949891386316,47.184300535219066],[11.581986697012391,47.184117626764575],[11.58216653833737,47.183223908177141],[11.582354862009531,47.182961184951068],[11.582099829474368,47.182408518918628],[11.581910883271018,47.182091971543819],[11.581672202819542,47.181752937456572],[11.581670523481662,47.181636020909998],[11.581384555932811,47.181333930039912],[11.581123060315957,47.180955474898461],[11.579827336353331,47.180349255622282],[11.579573044595515,47.179950929718537],[11.579385636899621,47.179648393563085],[11.579328194559483,47.179555649007597],[11.57940496278181,47.17946468606506],[11.579936087917488,47.178797788702546],[11.579974802950817,47.178630961029675],[11.579891358633843,47.178582844373658],[11.579957652941987,47.178410680058143],[11.579651012005867,47.178103412216444],[11.57983948403087,47.177508326378415],[11.57995665676645,47.177340017168653],[11.580045349969041,47.177285353987088],[11.580033809274525,47.177237446053027],[11.580111413557432,47.176973499826737],[11.580002612427364,47.176658597290157],[11.579846160489488,47.176489301233261],[11.579726820959749,47.176282272844674],[11.579531169703372,47.176078141527803],[11.579193964672813,47.175839745970293],[11.578718414339654,47.175585759704212],[11.578603589191284,47.1753966711413],[11.578491789874366,47.17529767948141],[11.578133846311507,47.175193441164552],[11.578091074326924,47.175164941025031],[11.577754500791054,47.174940656504916],[11.577779451511516,47.174816974737666],[11.577385782843324,47.174379586904429],[11.577133536965238,47.174333117301771],[11.577146654584663,47.17427333837221],[11.576834064876891,47.174088369269313],[11.576610352915528,47.174049235205231],[11.576444342338554,47.17409744700285],[11.575733026217129,47.173676175337029],[11.575497406655664,47.173550366247909],[11.575487304498751,47.173320293600355],[11.575022891356848,47.172584939117257],[11.574914608157409,47.172313291909994],[11.574943505520732,47.172211605778173],[11.574623707932528,47.17161932509093],[11.574506887083954,47.171541971789118],[11.574193644323408,47.171299434499268],[11.57399780606764,47.171329615359774],[11.573752994189114,47.17127307352942],[11.573272407636912,47.171213950640244],[11.572709934744637,47.171036615952701],[11.572466975896493,47.170971137326681],[11.572835789412997,47.170724300148564],[11.577289831130617,47.167743072192074],[11.577781311986547,47.167410012822586],[11.577948163016954,47.167296944892669],[11.58013380413205,47.166147774267628],[11.580290494781998,47.166065387262961],[11.580584896225913,47.165851526157283],[11.582338543783116,47.164577477239597],[11.582661393202631,47.164435890958885],[11.583756452180168,47.163934010759029],[11.585919923465291,47.162938245175198],[11.587212932273209,47.162343142199973],[11.587772245521268,47.162095875626015],[11.588019906292105,47.161657360643304],[11.588073361547155,47.161563767939199],[11.588902831503924,47.160040747665576],[11.589533058674444,47.159479310247953],[11.590976807839136,47.159029763188286],[11.590028335043877,47.157386504846947],[11.589980751020205,47.157308948921887],[11.589000760102902,47.157256077230159],[11.588939142595128,47.157215374064073],[11.588756777038318,47.157058786228269],[11.588383836008221,47.156738413462691],[11.588393752999679,47.156627306445372],[11.586775052956339,47.155958491181011],[11.586628910803805,47.155900899459958],[11.585742761951057,47.15538355169123],[11.58550264290829,47.155243329984295],[11.585736949099086,47.155135622244352],[11.585950041590637,47.155037662228445],[11.586219387231415,47.154913847860463],[11.586397389694321,47.154572522721246],[11.586431637027113,47.154506845005535],[11.586230661580601,47.154099746828116],[11.586157662108738,47.153951873679581],[11.586180343783765,47.153659557588618],[11.586159145511397,47.153642347569075],[11.585926106686914,47.153453156974578],[11.585368718646233,47.153000711217395]]]},"properties":{"OBJECTID":1,"OBJEKT":"MILBES","NAME":"TÜPl Lizum/Walchen  (mil. Sperrgebiet)","STAND":1362355200000,"EMASST":1000,"GEMOESTAT":"70366","CREATEUSER":"U0191795","CREATETIMESTAMP":1406620082000,"UPDATEUSER":"U0333158","UPDATETIMESTAMP":1758814320000,"OBJBEZ":"Militärischer Beschränkungsbereich (§ 1 MBG)","ANMERKUNG":"Ausbildungsbetrieb,  -lärm, erhöhter Kfz - Verkehr","ART":"Sperrgebiet","RPL_ZIEL":"Staendiger mil. Uebungsplatz mit Scharfschiessen, Sprengen und Kampfmitteleinsatz, auch bin der Nacht,  staendiger HS Betrieb, Betreteverbot gem. SpGG mit Sonderausnahmen","ZUSTAENDIG":"MilKdoT","FLAEWI":"ja","AKTION":"Sperrgebiet","GESETZ_GDLG":"SpGG","TYP":"Militärischer Beschränkungsbereich (§ 1 MBG)","Shape_Length":40620.974096394733,"Shape_Area":50964781.251869135}},{"type":"Feature","id":2,"geometry":{"type":"Polygon","coordinates":[[[12.670709443646606,47.503858541709903],[12.669304295461874,47.508229740766609],[12.668868239443443,47.507987684275413],[12.666608137782372,47.506733196810657],[12.665130152740847,47.506069047282672],[12.66376447151147,47.504981092788775],[12.66332884209244,47.504159239525016],[12.66284069064255,47.503812609028401],[12.661348392627513,47.502752933250854],[12.660462149476409,47.501996952720503],[12.657421542529706,47.502512992350326],[12.652963700160916,47.503754188367189],[12.652845078279386,47.503787213024545],[12.652768594575177,47.503753025621748],[12.652332570058267,47.503558126512822],[12.650796081191881,47.502871316263864],[12.650027496679714,47.501806551749837],[12.649630909580898,47.501680584044614],[12.649146369718126,47.501526677836011],[12.647393056423217,47.501158093390714],[12.645840147503669,47.500245898832517],[12.646220515009306,47.499275265091349],[12.646193357617934,47.498491420252961],[12.647281801983532,47.496898941226164],[12.647517238304573,47.495924823247208],[12.647624638341663,47.493719322474881],[12.64612226121954,47.492552171976712],[12.64565276653083,47.491467229340635],[12.645800162289106,47.490437358215921],[12.645488888007987,47.490221507245884],[12.645375223399045,47.489802042535374],[12.64491572553089,47.489475294762997],[12.646308076077924,47.489854789052018],[12.645999917459335,47.489178444213941],[12.645793251314306,47.488737013914317],[12.645924206805439,47.488242030848227],[12.644544464362863,47.487198730142353],[12.644254742447043,47.486960160261255],[12.643648096542645,47.486460549658801],[12.643506567283019,47.486290895394816],[12.643307606660226,47.486092491535693],[12.643102870084089,47.485626167948134],[12.642639645569005,47.485120717318893],[12.642521498788552,47.484907305664478],[12.642438962432831,47.484571435787288],[12.642360967909822,47.484467370146184],[12.642255278916208,47.484428088490297],[12.640919865301719,47.483675376351655],[12.640805055224613,47.483600560461227],[12.640626614644784,47.483550953238478],[12.640414395268975,47.483516304400368],[12.64025336373267,47.483504711919075],[12.639759253333507,47.483456219528314],[12.639210473500635,47.483394589070762],[12.635975871757728,47.482609944961894],[12.635903660750369,47.482592414607645],[12.635346130902299,47.482404928939538],[12.634965074135152,47.482178185566262],[12.634873866652738,47.482067952967689],[12.634857958098859,47.482027020225821],[12.6347054819975,47.481640317389235],[12.634486501412274,47.481156606935734],[12.634292398423476,47.480727914143642],[12.634254199768762,47.480706993236907],[12.634497860108457,47.480303555275491],[12.636070378832729,47.479591184969571],[12.638325462609782,47.477468593178592],[12.638348930959863,47.477446503224371],[12.63839339618475,47.47742491705781],[12.639850639064315,47.47683676185413],[12.639899412819,47.476305055241099],[12.64035939245298,47.475953513976243],[12.640864597460284,47.474982651056699],[12.641425522049191,47.475111343940405],[12.641898562178572,47.475224840436326],[12.642388179948593,47.475379270358729],[12.642798202546571,47.475533575889678],[12.643246541763341,47.475780665414518],[12.643530194553728,47.475981335738659],[12.643567316314661,47.476053874955269],[12.643773864583043,47.476246613634473],[12.64386635963389,47.476355644889878],[12.644023526869864,47.476429539127786],[12.644309684718234,47.476621857407835],[12.644389810331601,47.476672709566117],[12.64446441158713,47.476720020974952],[12.644500988507065,47.476743267574335],[12.644769630141013,47.47682484770624],[12.64504218131869,47.476911847977128],[12.645180253813511,47.47697519192252],[12.645274867225336,47.477014077881563],[12.645514554002238,47.477098360679406],[12.645763501761564,47.477154275968772],[12.64607078614867,47.477223314254488],[12.646225024497168,47.477257881788326],[12.646321454847014,47.477279598421262],[12.646597717166337,47.477336935699775],[12.64669325984975,47.477345425705991],[12.64673829813014,47.477339977920501],[12.646860819198846,47.477325206142467],[12.647649670374189,47.477233435588197],[12.647740005999236,47.477254575043744],[12.649039111072051,47.477090394293683],[12.649683647043238,47.477026616288619],[12.650047737795408,47.476992098266898],[12.650332272340737,47.476964389162397],[12.650703020416557,47.476887185654199],[12.651006192199219,47.476823877715901],[12.651261925922336,47.476786819364037],[12.651462840934832,47.476762025308567],[12.651708934608696,47.476731654188249],[12.65202161506074,47.476702129986847],[12.65272689979879,47.476526087524171],[12.653496767747301,47.476259402019387],[12.654238675690214,47.475948651820723],[12.654362300365934,47.475909091871372],[12.654802713450106,47.475768069406449],[12.65493593573186,47.475622252061896],[12.655626867032343,47.475220256289809],[12.655511923094858,47.475009014573551],[12.65533931194183,47.474691925455431],[12.655314575026589,47.474090770996945],[12.655349472487387,47.473925840566345],[12.654637727393091,47.473691804590104],[12.654484712746715,47.473532232850545],[12.653700330363684,47.473202058493591],[12.652874899486045,47.472672498095861],[12.652735181845433,47.472531532105648],[12.652476965332058,47.472270863066207],[12.652163909938229,47.471840591158575],[12.651913444324606,47.471749602227447],[12.651256145865778,47.47156551864861],[12.650929942793896,47.471392585808331],[12.650814473848483,47.470948290623959],[12.652078145188137,47.469637971937637],[12.652250563670215,47.469292264863839],[12.652318964906542,47.468897007836041],[12.652343009248252,47.468802169784297],[12.652561173911684,47.468477962136255],[12.652568832869719,47.46813280156416],[12.652834843707865,47.467504146736076],[12.653620046095321,47.467374626489288],[12.657419950377607,47.466318301200097],[12.661056997767638,47.465762900701471],[12.661191957389374,47.46587392969824],[12.661268552194995,47.465958678263156],[12.66133358191605,47.466023050275147],[12.661401742476441,47.46607720516527],[12.661444037094833,47.466099593685151],[12.661535787659043,47.466129389907053],[12.661568397904142,47.466136362260649],[12.661669483086971,47.466151039055035],[12.661806571273575,47.466155724780215],[12.661940454027841,47.466169562147549],[12.662074338064739,47.466185861264975],[12.662166870949273,47.466207675129105],[12.662224435946552,47.46623341618762],[12.66228384816764,47.466280959591955],[12.662325651553203,47.466338905113282],[12.662354607022881,47.466382315529792],[12.662366626560562,47.466463873914236],[12.662386740573023,47.466556854454183],[12.662393667583519,47.466654754884594],[12.662397428368875,47.466754280216641],[12.662398871244308,47.466827050187064],[12.662390482571231,47.46690259589289],[12.66239079762394,47.466982600948356],[12.662399138245233,47.467058703872006],[12.662428919066041,47.467125366685579],[12.662486528145147,47.467190901509049],[12.662555049194282,47.467250305073648],[12.662644928095153,47.467289987033219],[12.662723134457643,47.467311086548612],[12.662780409663155,47.467338011556663],[12.662816740351442,47.467370489811302],[12.662838051273202,47.467406611039713],[12.662833401144011,47.46745030782418],[12.662810005798603,47.467503554685251],[12.662765312191897,47.467572523642232],[12.662711741382338,47.467652518974148],[12.662683005984533,47.467713924744224],[12.662678923694145,47.467784516741666],[12.66270546501563,47.467837158171484],[12.662723972893707,47.467873995658081],[12.662805342911081,47.467940436761445],[12.662906377486236,47.46801354323236],[12.66300648278111,47.468059651094897],[12.663095227958504,47.468133308254458],[12.663195202536695,47.468219341122712],[12.663222408128163,47.468248979518066],[12.663297251888473,47.468217391238831],[12.663312130050219,47.468171459269939],[12.663280813895245,47.468076139208819],[12.663309380235347,47.467966613462359],[12.663456285000851,47.467840994172306],[12.663535431227224,47.467760839793463],[12.663617700661131,47.4677009155535],[12.663770700225957,47.467570781608266],[12.663888976082642,47.467542656278908],[12.664101133745632,47.467471685736172],[12.664398350010323,47.467490877922749],[12.664601980716615,47.467494704930132],[12.664832528806278,47.467500174003398],[12.664913816047473,47.46746720342076],[12.665150032490448,47.467377746631257],[12.665329655162626,47.467354406008695],[12.665503345179122,47.467363527226965],[12.66569977656553,47.467404983492997],[12.66591336963991,47.467425472189184],[12.666001540709527,47.467393251392757],[12.666143742132737,47.467322242960222],[12.666207307640873,47.467286878390048],[12.666333084793816,47.467250633835121],[12.666571693365373,47.467249326879156],[12.666814012423272,47.46730833822668],[12.666921248343323,47.467394029496035],[12.667105268530092,47.4675037029305],[12.667236363171112,47.467451616064388],[12.667445050286467,47.467429199276616],[12.667577040234443,47.467366598433152],[12.66768327731536,47.467327901194487],[12.667983344811152,47.467312979972846],[12.668286469778911,47.46724428836432],[12.668654611454704,47.467245777562539],[12.668866589342842,47.46719737568818],[12.668988292234081,47.467207338432814],[12.669258334569367,47.467277657276441],[12.669371024646482,47.467279274937361],[12.669475950597548,47.467247788834669],[12.669738548411186,47.467147797350997],[12.669876431776567,47.46712025150903],[12.670294806526464,47.467135491269374],[12.670405177016043,47.467120326397477],[12.670644240228224,47.467066087661806],[12.67075373977419,47.467060342675829],[12.670857307155151,47.467088040443443],[12.670981818727675,47.467075047957536],[12.671015751985179,47.467073576740532],[12.671115528264966,47.46707944867152],[12.671209758417532,47.467094719967477],[12.671296033314642,47.467120822264278],[12.671529966698442,47.467249596984765],[12.671720969421065,47.467339934387283],[12.671896672381553,47.467431849804235],[12.672131935366838,47.467488125222445],[12.672301429775363,47.467429261828599],[12.67257656939629,47.467483136716289],[12.67275764386423,47.467523203818615],[12.673063573170689,47.467558237566173],[12.673195477768544,47.467680220323899],[12.673124853943618,47.467777257674356],[12.673199032867288,47.467820495131512],[12.67325836175764,47.467858835371985],[12.673266016207862,47.467951709236942],[12.673193576982625,47.468069402902927],[12.673188468544922,47.468192719788327],[12.673207433189496,47.46823517086515],[12.673286707524074,47.468310696273825],[12.673338489824594,47.468317412813917],[12.673397259269301,47.468329517860035],[12.673400763635446,47.468360223705716],[12.673497827999325,47.46842744895028],[12.673536147495023,47.468490060607579],[12.673618869458515,47.468569123365981],[12.673622990952214,47.46861508294252],[12.673647601375936,47.468691731143181],[12.673716083959256,47.468732564051386],[12.673760979777503,47.468783366872685],[12.673958422349218,47.468864716307372],[12.674019187925863,47.4689070835935],[12.674069871043361,47.468909700715678],[12.674086615422235,47.469083118360942],[12.67417494304183,47.469211639636285],[12.674212500845901,47.469273137730731],[12.674271839471276,47.469314303477766],[12.674380704087314,47.469326379004421],[12.674591169745204,47.469374096460477],[12.674649353469723,47.469375511459241],[12.674706629343671,47.469394251346444],[12.674753817245847,47.469390347950068],[12.674845371526287,47.469417123312425],[12.674930379176359,47.469431702750235],[12.675143994038509,47.469393751244617],[12.675187477817552,47.469405559290117],[12.675360511597368,47.469382493938774],[12.675456426758934,47.469335768850797],[12.675525107347337,47.469320446207334],[12.675586082628966,47.469322260691627],[12.675675298794754,47.469314625048341],[12.675727191686979,47.469324639421046],[12.675787833094583,47.469308149478032],[12.675936060144597,47.469290804099629],[12.676032413253559,47.469300347747364],[12.676122245131779,47.469287491074795],[12.676189926715558,47.469300429154778],[12.676236141303493,47.469276048097612],[12.676292139074514,47.469283055017804],[12.676405784875568,47.469279446238751],[12.676462750161868,47.469259254003312],[12.676584804729366,47.469252921443555],[12.676670226608822,47.469239281887511],[12.67675289920899,47.469206068613296],[12.676786772038774,47.469197714843858],[12.676845492024846,47.46920066311575],[12.678803807228055,47.470706973771421],[12.680056921824297,47.471562027890222],[12.680068901477535,47.471573961213096],[12.680158666542143,47.471758218424064],[12.680220863708456,47.471906967667252],[12.680291563819852,47.471992747913539],[12.680422652320738,47.472050017281063],[12.680510171216975,47.472054267123248],[12.680590269896554,47.472106537420125],[12.680906953440443,47.472185335653379],[12.680964582562584,47.472181339308577],[12.68134273058431,47.472439347332845],[12.68177180170755,47.472732093983083],[12.681796115082085,47.472805390473319],[12.681949040302557,47.472997755988551],[12.68213656439651,47.473192437159838],[12.682173546023323,47.473298396857565],[12.682623077098159,47.473325957994177],[12.682637609514469,47.473322802729314],[12.682858899181308,47.473473776346815],[12.682861086832899,47.473507609439331],[12.682871828542638,47.473586824373214],[12.682941423096093,47.473582085496119],[12.683010737277305,47.473577366710252],[12.683308154077654,47.473780275575216],[12.683306635748558,47.473791875148322],[12.683289817320853,47.473966220783161],[12.68344729365025,47.473875201492582],[12.683696889525724,47.474045481675027],[12.683769982399038,47.474264370115947],[12.683927156573489,47.47443800649625],[12.684079357698154,47.47442937082365],[12.684239396907701,47.47434772110978],[12.684435469653859,47.474297882147823],[12.68521818613257,47.474548419720087],[12.685424752559035,47.474516274824524],[12.685610905437834,47.474481198314912],[12.685735138356165,47.474484937959247],[12.685888567378226,47.474455321740002],[12.686138604710123,47.474377876797597],[12.68634564966543,47.474453582240891],[12.686444929513504,47.474441697593043],[12.686869522302791,47.474530523791671],[12.687489135925805,47.474633103409879],[12.687881571122702,47.474854617952147],[12.688261571627597,47.474993792416512],[12.688433769206041,47.47509044086889],[12.688818759295041,47.475108275477375],[12.689173643268992,47.474953762848784],[12.691337782585039,47.475868484444476],[12.691772360695975,47.476117915324501],[12.691958343543117,47.476130772691022],[12.692260097330291,47.476258325996731],[12.692298993538206,47.476264823973693],[12.692584415357063,47.476471773813365],[12.692753484964168,47.476526595755423],[12.692790868195713,47.476599506928892],[12.692981733708484,47.476688416659954],[12.693129491275142,47.476693775633564],[12.693337794746858,47.476620522148103],[12.69339461300104,47.47676179930739],[12.693486501422761,47.476796070959402],[12.693568648213217,47.476826710154668],[12.69381756056166,47.476969398322332],[12.693999790948659,47.476810933317104],[12.694064265950816,47.476826670311077],[12.694227994311042,47.476950375801017],[12.694407797708807,47.477096734313527],[12.694553042536898,47.476915048807648],[12.694948258158606,47.477205864974579],[12.695294422500442,47.477449884664487],[12.695589515165654,47.477670343543643],[12.696145519046116,47.477875533661113],[12.696437503313735,47.47798029762594],[12.696417752763324,47.47770439216395],[12.696577203730721,47.477732428746151],[12.696607414517569,47.477620008454103],[12.697067745003073,47.477657328994944],[12.697397120892456,47.477743882489698],[12.698141821546409,47.477635140375824],[12.698157012796134,47.477785617800244],[12.698188441528931,47.477958704122869],[12.698204742222998,47.478255313152324],[12.698466415748307,47.478434457541816],[12.699069645015674,47.478629108231537],[12.697038291145118,47.481522326754948],[12.696489868449225,47.482303311070481],[12.697663492039384,47.484772791556672],[12.697815078440268,47.485403243238309],[12.697708049554722,47.486023261138968],[12.697458302779136,47.487469969497241],[12.69715843306064,47.488124889912193],[12.694194080085406,47.490221205970087],[12.693974350280028,47.490252085608176],[12.692279105956818,47.490490104789551],[12.687017148118093,47.491228828357677],[12.686639736535456,47.491562722002406],[12.685305941670784,47.492742958454755],[12.681893434611371,47.494928513620984],[12.677291385342995,47.497875528663954],[12.675753118476274,47.498860468991374],[12.675705920555046,47.498890688581916],[12.675351891807749,47.499117376712988],[12.673882796658848,47.499379721789815],[12.672018872152016,47.499712527773106],[12.671569074681535,47.501184370524705],[12.670709443646606,47.503858541709903]]]},"properties":{"OBJECTID":2,"OBJEKT":"MILBES","NAME":"TÜPl HOCHFILZEN  (mil. Sperrgebiet)","STAND":1362355200000,"EMASST":1000,"GEMOESTAT":"70405","CREATEUSER":"U0191795","CREATETIMESTAMP":1406620082000,"UPDATEUSER":"U0333158","UPDATETIMESTAMP":1758814320000,"OBJBEZ":"Militärischer Beschränkungsbereich (§ 1 MBG)","ANMERKUNG":"Ausbildungsbetrieb,  -lärm, erhöhter Kfz - Verkehr","ART":"Sperrgebiet","RPL_ZIEL":"Staendiger mil. Uebungsplatz mit Scharfschiessen, Sprengen und Kampfmitteleinsatz, auch bin der Nacht,  staendiger HS Betrieb, Betreteverbot gem. SpGG mit Sonderausnahmen","ZUSTAENDIG":"MilKdoT","FLAEWI":"ja","AKTION":"Sperrgebiet","GESETZ_GDLG":"SpGG","TYP":"Militärischer Beschränkungsbereich (§ 1 MBG)","Shape_Length":17434.728683310361,"Shape_Area":12401213.56144369}}]}